STARLINK-2517           
1 48309U 21036AK  26194.12660575  .00001937  00000+0  74164-4 0  9995
2 48309  53.1601 225.2562 0001184  91.9366 268.1771 15.31697328287435
STARLINK-2536           
1 48310U 21036AL  26194.30937880  .00000163  00000+0  17014-4 0  9994
2 48310  53.1592 226.9362 0001361  99.1573 260.9583 15.31704471287427
STARLINK-2534           
1 48311U 21036AM  26193.57660875 -.00000134  00000+0  74492-5 0  9993
2 48311  53.1588 227.5907 0001402  58.3102 301.8036 15.31699343287357
STARLINK-2061           
1 48312U 21036AN  26193.48336084 -.00000142  00000+0  71770-5 0  9991
2 48312  53.1586 227.7721 0001298  95.3939 264.7210 15.31692539287344
STARLINK-2549           
1 48314U 21036AQ  26194.30863712 -.00000077  00000+0  92897-5 0  9998
2 48314  53.1573 226.4022 0000857 100.6294 259.4804 15.31704125287420
STARLINK-2506           
1 48315U 21036AR  26193.41119750  .00000122  00000+0  15706-4 0  9999
2 48315  53.1588 238.6289 0001322 106.9249 253.1897 15.31709557287162
STARLINK-2507           
1 48316U 21036AS  26194.32004994  .00001248  00000+0  51976-4 0  9993
2 48316  53.1595 234.3862 0001173  76.5258 283.5874 15.31697315287303
STARLINK-2513           
1 48317U 21036AT  26194.09387989  .00002324  00000+0  86612-4 0  9997
2 48317  53.1569 224.6972 0000998  79.8048 280.3066 15.31704376287434
STARLINK-2509           
1 48318U 21036AU  26194.32077479 -.00000853  00000+0 -15723-4 0  9996
2 48318  53.1588 237.3258 0001379  71.9446 288.1706 15.31702551287275
STARLINK-2512           
1 48319U 21036AV  26194.31136003 -.00000380  00000+0 -47145-6 0  9995
2 48319  53.1573 236.6415 0001336  89.2260 270.8894 15.31694019287282
STARLINK-2029           
1 48320U 21036AW  26193.49144215  .00001216  00000+0  50925-4 0  9994
2 48320  53.1599 240.7693 0001017  77.7505 282.3610 15.31706643287153
STARLINK-2457           
1 48321U 21036AX  26194.16686724  .00000585  00000+0  30607-4 0  9999
2 48321  53.1590 237.2489 0001111  92.9964 267.1165 15.31692938287261
STARLINK-2515           
1 48323U 21036AZ  26193.43978551 -.00000641  00000+0 -88976-5 0  9990
2 48323  53.1574 240.6077 0001288  66.5755 293.5382 15.31698423287153
STARLINK-2495           
1 48325U 21036BB  26193.64023010  .00050850  00000+0  16457-2 0  9993
2 48325  53.1583 239.8029 0001863 101.1219 258.9992 15.31573612287189
STARLINK-2498           
1 48326U 21036BC  26194.15322920  .00012075  00000+0  40018-3 0  9991
2 48326  53.1565 237.3462 0001552  98.8109 261.3068 15.31704716287261
STARLINK-2502           
1 48327U 21036BD  26194.14856800  .00001065  00000+0  46081-4 0  9994
2 48327  53.1582 237.3693 0001099  89.8775 270.2352 15.31695967287264
STARLINK-2504           
1 48328U 21036BE  26193.41647224 -.00000516  00000+0 -48523-5 0  9998
2 48328  53.1590 240.6594 0001320  90.1390 269.9763 15.31705624287146
STARLINK-2510           
1 48329U 21036BF  26193.60789641  .00003076  00000+0  11082-3 0  9990
2 48329  53.1584 239.7610 0001207  86.4960 273.6179 15.31712372287188
STARLINK-2501           
1 48330U 21036BG  26194.30241699 -.00000735  00000+0 -11914-4 0  9992
2 48330  53.1590 237.0231 0001054 101.0053 259.1067 15.31698011287283
STARLINK-2514           
1 48331U 21036BH  26194.30437012  .00023502  00000+0  67988-3 0  9995
2 48331  53.1561 236.3657 0005505   7.4968 352.6116 15.35512465287292
STARLINK-2518           
1 48333U 21036BK  26194.31634313  .00000861  00000+0  39513-4 0  9998
2 48333  53.1593 236.5170 0001002  84.2034 275.9082 15.31692361287295
STARLINK-2470           
1 48334U 21036BL  26194.31168266 -.00001525  00000+0 -37379-4 0  9996
2 48334  53.1577 236.5287 0001231  83.6039 276.5103 15.31696161287292
STARLINK-2613           
1 48353U 21038A   26194.22088977  .00002209  00000+0  82920-4 0  9999
2 48353  53.1554 134.0609 0002322  70.9187 289.2066 15.31710626286317
STARLINK-2674           
1 48354U 21038B   26193.96455736  .00012028  00000+0  39842-3 0  9995
2 48354  53.1621 135.3366 0000377  92.5531 267.5514 15.31723655286276
STARLINK-2635           
1 48355U 21038C   26194.21156216  .00001313  00000+0  54089-4 0  9992
2 48355  53.1604 134.0805 0001740 107.3069 252.8123 15.31703002286310
STARLINK-2637           
1 48356U 21038D   26193.25615370  .00002243  00000+0  84033-4 0  9992
2 48356  53.1591 138.8220 0001483  84.6101 275.5070 15.31697600286169
STARLINK-2636           
1 48357U 21038E   26194.27215788  .00003061  00000+0  11035-3 0  9995
2 48357  53.1580 133.8536 0001570  84.7031 275.4149 15.31707166286326
STARLINK-2624           
1 48358U 21038F   26194.20223970  .00000926  00000+0  41598-4 0  9996
2 48358  53.1622 134.1353 0001456  86.6145 273.5023 15.31707632286301
STARLINK-2628           
1 48359U 21038G   26194.23025346  .00002939  00000+0  10641-3 0  9997
2 48359  53.1587 134.3526 0001631  80.7026 279.4160 15.31713037286307
STARLINK-2622           
1 48360U 21038H   26193.87134791  .00021538  00000+0  70472-3 0  9997
2 48360  53.1591 135.7058 0001430 115.9474 244.1675 15.31657795286256
