OBJECT_NAME,OBJECT_ID,EPOCH,MEAN_MOTION,ECCENTRICITY,INCLINATION,RA_OF_ASC_NODE,ARG_OF_PERICENTER,MEAN_ANOMALY,EPHEMERIS_TYPE,CLASSIFICATION_TYPE,NORAD_CAT_ID,ELEMENT_SET_NO,REV_AT_EPOCH,BSTAR,MEAN_MOTION_DOT,MEAN_MOTION_DDOT
STARLINK-2517,2021-036AK,2026-07-13T03:02:18.736800,15.31697328,.00011849,53.1601,225.2562,91.9366,268.1771,0,U,48309,999,28743,.74164257E-4,.1937E-4,0
STARLINK-2536,2021-036AL,2026-07-13T07:25:30.328320,15.31704471,.00013614,53.1592,226.9362,99.1573,260.9583,0,U,48310,999,28742,.17014016E-4,.163E-5,0
STARLINK-2534,2021-036AM,2026-07-12T13:50:18.996000,15.31699343,.0001402,53.1588,227.5907,58.3102,301.8036,0,U,48311,999,28735,.74492E-5,-.134E-5,0
STARLINK-2061,2021-036AN,2026-07-12T11:36:02.376576,15.31692539,.00012988,53.1586,227.7721,95.3939,264.7210,0,U,48312,999,28734,.7176976E-5,-.142E-5,0
STARLINK-2549,2021-036AQ,2026-07-13T07:24:26.247168,15.31704125,.0000857,53.1573,226.4022,100.6294,259.4804,0,U,48314,999,28742,.9289687E-5,-.77E-6,0
STARLINK-2506,2021-036AR,2026-07-12T09:52:07.464000,15.31709557,.00013226,53.1588,238.6289,106.9249,253.1897,0,U,48315,999,28716,.1570578E-4,.122E-5,0
STARLINK-2507,2021-036AS,2026-07-13T07:40:52.314816,15.31697315,.00011733,53.1595,234.3862,76.5258,283.5874,0,U,48316,999,28730,.5197609E-4,.1248E-4,0
STARLINK-2513,2021-036AT,2026-07-13T02:15:11.222496,15.31704376,.00009981,53.1569,224.6972,79.8048,280.3066,0,U,48317,999,28743,.86612271E-4,.2324E-4,0
STARLINK-2509,2021-036AU,2026-07-13T07:41:54.941856,15.31702551,.00013797,53.1588,237.3258,71.9446,288.1706,0,U,48318,999,28727,-.15723401E-4,-.853E-5,0
STARLINK-2512,2021-036AV,2026-07-13T07:28:21.506592,15.31694019,.00013363,53.1573,236.6415,89.2260,270.8894,0,U,48319,999,28728,-.471451E-6,-.38E-5,0
STARLINK-2029,2021-036AW,2026-07-12T11:47:40.601760,15.31706643,.00010178,53.1599,240.7693,77.7505,282.3610,0,U,48320,999,28715,.50924561E-4,.1216E-4,0
STARLINK-2457,2021-036AX,2026-07-13T04:00:17.329536,15.31692938,.00011116,53.1590,237.2489,92.9964,267.1165,0,U,48321,999,28726,.30606701E-4,.585E-5,0
STARLINK-2515,2021-036AZ,2026-07-12T10:33:17.468064,15.31698423,.00012882,53.1574,240.6077,66.5755,293.5382,0,U,48323,999,28715,-.889763E-5,-.641E-5,0
STARLINK-2495,2021-036BB,2026-07-12T15:21:55.880640,15.31573612,.00018637,53.1583,239.8029,101.1219,258.9992,0,U,48325,999,28718,.16456812E-2,.5085E-3,0
STARLINK-2498,2021-036BC,2026-07-13T03:40:39.002880,15.31704716,.0001552,53.1565,237.3462,98.8109,261.3068,0,U,48326,999,28726,.40018497E-3,.12075E-3,0
STARLINK-2502,2021-036BD,2026-07-13T03:33:56.275200,15.31695967,.00010996,53.1582,237.3693,89.8775,270.2352,0,U,48327,999,28726,.46080798E-4,.1065E-4,0
STARLINK-2504,2021-036BE,2026-07-12T09:59:43.201536,15.31705624,.00013206,53.1590,240.6594,90.1390,269.9763,0,U,48328,999,28714,-.4852326E-5,-.516E-5,0
STARLINK-2510,2021-036BF,2026-07-12T14:35:22.249824,15.31712372,.00012077,53.1584,239.7610,86.4960,273.6179,0,U,48329,999,28718,.11081682E-3,.3076E-4,0
STARLINK-2501,2021-036BG,2026-07-13T07:15:28.827936,15.31698011,.00010542,53.1590,237.0231,101.0053,259.1067,0,U,48330,999,28728,-.11913921E-4,-.735E-5,0
STARLINK-2514,2021-036BH,2026-07-13T07:18:17.578368,15.35512465,.0005505,53.1561,236.3657,7.4968,352.6116,0,U,48331,999,28729,.67988145E-3,.23502E-3,0
STARLINK-2518,2021-036BK,2026-07-13T07:35:32.046432,15.31692361,.00010028,53.1593,236.5170,84.2034,275.9082,0,U,48333,999,28729,.39512874E-4,.861E-5,0
STARLINK-2470,2021-036BL,2026-07-13T07:28:49.381824,15.31696161,.00012314,53.1577,236.5287,83.6039,276.5103,0,U,48334,999,28729,-.37379354E-4,-.1525E-4,0
STARLINK-2613,2021-038A,2026-07-13T05:18:04.876128,15.31710626,.00023223,53.1554,134.0609,70.9187,289.2066,0,U,48353,999,28631,.82919575E-4,.2209E-4,0
STARLINK-2674,2021-038B,2026-07-12T23:08:57.755904,15.31723655,.0000377,53.1621,135.3366,92.5531,267.5514,0,U,48354,999,28627,.39842394E-3,.12028E-3,0
STARLINK-2635,2021-038C,2026-07-13T05:04:38.970624,15.31703002,.00017408,53.1604,134.0805,107.3069,252.8123,0,U,48355,999,28631,.54089241E-4,.1313E-4,0
STARLINK-2637,2021-038D,2026-07-12T06:08:51.679680,15.31697600,.0001483,53.1591,138.8220,84.6101,275.5070,0,U,48356,999,28616,.84033E-4,.2243E-4,0
STARLINK-2636,2021-038E,2026-07-13T06:31:54.440832,15.31707166,.00015705,53.1580,133.8536,84.7031,275.4149,0,U,48357,999,28632,.11035471E-3,.3061E-4,0
STARLINK-2624,2021-038F,2026-07-13T04:51:13.510080,15.31707632,.00014564,53.1622,134.1353,86.6145,273.5023,0,U,48358,999,28630,.41597802E-4,.926E-5,0
STARLINK-2628,2021-038G,2026-07-13T05:31:33.898944,15.31713037,.00016311,53.1587,134.3526,80.7026,279.4160,0,U,48359,999,28630,.10640806E-3,.2939E-4,0
STARLINK-2622,2021-038H,2026-07-12T20:54:44.459424,15.31657795,.00014306,53.1591,135.7058,115.9474,244.1675,0,U,48360,999,28625,.70471549E-3,.21538E-3,0
